BEIDOU-3S IGSO-2S       
1 40938U 15053A   26168.70526789 -.00000132  00000+0  00000+0 0  9990
2 40938  49.2207 258.7761 0065582 192.0839 164.1337  1.00258762 39350
SKY MUSTER 1 (NBN1A)    
1 40940U 15054A   26168.71068348  .00000000  00000+0  00000+0 0  9990
2 40940   0.0234 353.3035 0001612  92.6240 216.1098  1.00268158 39261
ARSAT 2                 
1 40941U 15054B   26168.88075753 -.00000230  00000+0  00000+0 0  9993
2 40941   0.0381  62.3668 0001979   7.7717  72.0565  1.00270518 39313
MORELOS 3               
1 40946U 15056A   26168.46919677 -.00000050  00000+0  00000+0 0  9996
2 40946   3.1869  15.0767 0001048   6.6271 299.8511  1.00273381 39285
LINGQIAO VIDEO A        
1 40959U 15057B   26168.97112706  .00000618  00000+0  93599-4 0  9994
2 40959  97.6615 163.7342 0015160 267.7039  92.2436 14.77394414575520
LINGQIAO VIDEO B        
1 40960U 15057C   26168.94774442  .00000488  00000+0  75200-4 0  9998
2 40960  97.6580 164.8752 0015313 267.7331  92.2127 14.77499685575562
JILIN-1                 
1 40961U 15057D   26168.96094775  .00000647  00000+0  95958-4 0  9994
2 40961  97.6507 168.2892 0015332 260.1921  99.7559 14.78161530575723
AEROCUBE 5C             
1 40965U 15058B   26168.50608647  .00001718  00000+0  16077-3 0  9992
2 40965  64.7676 261.5986 0130756  63.1470 298.2940 14.91454811365705
AEROCUBE 7              
1 40966U 15058C   26168.50150937  .00002489  00000+0  20685-3 0  9993
2 40966  64.7618 243.8316 0120478  61.5772 299.7422 14.95727167366005
FOX-1A (AO-85)          
1 40967U 15058D   26168.62085905  .00001835  00000+0  17288-3 0  9998
2 40967  64.7761 277.6363 0130498  56.4134 304.9355 14.90971345113637
SINOD-D 1               
1 40968U 15058E   26168.47942457  .00002427  00000+0  20174-3 0  9992
2 40968  64.7753 257.9976 0119049  52.9638 308.2295 14.95907070116709
SNAP-3 ALICE            
1 40970U 15058G   26168.87886956  .00107342  00000+0  12714-2 0  9992
2 40970  64.7501 101.5406 0028111  12.3667 347.8162 15.60194157116996
LMRST-SAT               
1 40971U 15058H   26168.64336450  .00001676  00000+0  16024-3 0  9999
2 40971  64.7765 273.9050 0132104  58.4374 302.9558 14.90591401113625
SNAP-3 EDDIE            
1 40972U 15058J   26168.86835610  .00112050  00000+0  12626-2 0  9998
2 40972  64.7423  92.2962 0027656  16.3214 343.8816 15.61484150119136
PROPCUBE 3              
1 40973U 15058K   26168.61090290  .00002101  00000+0  18236-3 0  9998
2 40973  64.7683 251.2121 0124057  59.7494 301.5831 14.94259233114863
BISONSAT                
1 40974U 15058L   26168.29702111  .00009510  00000+0  46212-3 0  9991
2 40974  64.7578 173.2895 0079034  47.2137 313.5598 15.16191198115637
SNAP-3 JIMI             
1 40975U 15058M   26168.52204411  .00003494  00000+0  24618-3 0  9999
2 40975  64.7634 218.7133 0106190  55.2315 305.8742 15.02299948114273
PROPCUBE 1 (FLORA)      
1 40976U 15058N   26168.73302028  .00001776  00000+0  17540-3 0  9993
2 40976  64.7756 293.5441 0130784  60.7107 300.7001 14.89224245116342
SINOD-D 3               
1 40977U 15058P   26168.64265797  .00002465  00000+0  21502-3 0  9994
2 40977  64.7731 274.3970 0119289  57.9531 303.3103 14.94018331114822
APSTAR-9                
1 40982U 15059A   26168.92496177 -.00000271  00000+0  00000+0 0  9990
2 40982   0.0361  51.3665 0002287 135.9887 193.8170  1.00271406 39126
TURKSAT 4B              
1 40984U 15060A   26168.90667502  .00000109  00000+0  00000+0 0  9993
2 40984   0.0166 323.6020 0002108 108.0504 210.8877  1.00273080 39102
NAVSTAR 75 (USA 265)    
1 41019U 15062A   26167.77857057 -.00000072  00000+0  00000+0 0  9995
2 41019  56.9590  30.8268 0111872 231.0319 128.0214  2.00566887 77821
ZHONGXING-2C            
1 41021U 15063A   26168.91733507 -.00000329  00000+0  00000+0 0  9994
2 41021   0.2760  89.6718 0007666  99.3862 150.7998  1.00270485 38980
YAOGAN-28               
1 41026U 15064A   26168.97787303  .00006007  00000+0  22612-3 0  9994
2 41026  97.3081 307.2229 0010704 180.5258 179.5972 15.27430387590801
GSAT-15                 
1 41028U 15065A   26168.64391103 -.00000263  00000+0  00000+0 0  9992
2 41028   0.0687 265.0590 0004225 164.0387 162.1043  1.00272214 38802
BADR-7 (ARABSAT-6B)     
1 41029U 15065B   26168.47412855  .00000140  00000+0  00000+0 0  9995
2 41029   0.0488 237.5174 0004026 320.7911 264.1312  1.00274878 38773
COSMOS 2510             
1 41032U 15066A   26168.43530618 -.00001633  00000+0  00000+0 0  9993
2 41032  63.4910 346.1162 7201882 274.6775  13.7743  2.00902956 77477
LAOSAT 1                
1 41034U 15067A   26168.92227509 -.00000349  00000+0  00000+0 0  9995
2 41034   0.0441 151.8048 0002158 245.5398 329.3439  1.00269096 38863
TELSTAR 12V             
1 41036U 15068A   26168.89384230 -.00000125  00000+0  00000+0 0  9991
2 41036   0.0178  11.8818 0002174  67.0840 133.9617  1.00271035 38637
YAOGAN-29               
1 41038U 15069A   26168.91996010  .00000647  00000+0  86057-4 0  9991
2 41038  98.0021 197.5539 0002627  53.7656 306.3800 14.83087374570733
